[{"OBJECT_NAME":"STARLINK-4478","OBJECT_ID":"2022-101C","EPOCH":"2026-03-09T10:02:51.290016","MEAN_MOTION":15.10614738,"ECCENTRICITY":0.00035117,"INCLINATION":53.2154,"RA_OF_ASC_NODE":75.1159,"ARG_OF_PERICENTER":60.8817,"MEAN_ANOMALY":299.2528,"EPHEMERIS_TYPE":0,"CLASSIFICATION_TYPE":"U","NORAD_CAT_ID":53529,"ELEMENT_SET_NO":999,"REV_AT_EPOCH":19612,"BSTAR":0.0015702237,"MEAN_MOTION_DOT":0.00026046,"MEAN_MOTION_DDOT":0},{"OBJECT_NAME":"FENGYUN 1C DEB","OBJECT_ID":"1999-025BJR","EPOCH":"2026-03-09T02:36:25.741728","MEAN_MOTION":14.62811644,"ECCENTRICITY":0.02114789,"INCLINATION":99.2365,"RA_OF_ASC_NODE":306.6158,"ARG_OF_PERICENTER":322.0995,"MEAN_ANOMALY":36.5474,"EPHEMERIS_TYPE":0,"CLASSIFICATION_TYPE":"U","NORAD_CAT_ID":31187,"ELEMENT_SET_NO":999,"REV_AT_EPOCH":70361,"BSTAR":0.0035749119,"MEAN_MOTION_DOT":0.00025231,"MEAN_MOTION_DDOT":0}]
